STARLINK-2361           
1 47901U 21021AT  26068.71122616 -.00005554  00000+0 -17566-3 0  9993
2 47901  53.1601 255.2953 0001353  53.4820 306.6305 15.30175875276420
TEVEL2-2                
1 63219U 25052K   26068.64848259  .00020339  00000+0  69428-3 0  9991
2 63219  97.3987 324.7700 0004693 105.7930 254.3828 15.30343745 54855
